[{"OBJECT_NAME":"STARLINK-5462","OBJECT_ID":"2023-021AY","EPOCH":"2026-03-09T22:00:01.999584","MEAN_MOTION":14.98350999,"ECCENTRICITY":0.00033559,"INCLINATION":70.0011,"RA_OF_ASC_NODE":163.7425,"ARG_OF_PERICENTER":270.6716,"MEAN_ANOMALY":32.0399,"EPHEMERIS_TYPE":0,"CLASSIFICATION_TYPE":"U","NORAD_CAT_ID":55674,"ELEMENT_SET_NO":999,"REV_AT_EPOCH":575,"BSTAR":-0.00372699,"MEAN_MOTION_DOT":-0.00044308,"MEAN_MOTION_DDOT":0},{"OBJECT_NAME":"CZ-4B DEB","OBJECT_ID":"1999-057BZ","EPOCH":"2026-03-09T10:47:31.286688","MEAN_MOTION":14.9004764,"ECCENTRICITY":0.00449145,"INCLINATION":98.5631,"RA_OF_ASC_NODE":129.7133,"ARG_OF_PERICENTER":286.2462,"MEAN_ANOMALY":73.3815,"EPHEMERIS_TYPE":0,"CLASSIFICATION_TYPE":"U","NORAD_CAT_ID":26187,"ELEMENT_SET_NO":999,"REV_AT_EPOCH":39955,"BSTAR":0.00034061798,"MEAN_MOTION_DOT":3.283e-5,"MEAN_MOTION_DDOT":0}]
